0 FENGYUN 1C DEB
1 29944U 99025JS  18341.97591628 +.00000269 +00000-0 +47745-4 0  9995
2 29944 099.0703 345.8550 0254294 188.1852 226.0910 14.58215749629369
0 FENGYUN 1C DEB
1 29944U 99025JS  18342.73123116  .00000309  00000-0  53277-4 0  9995
2 29944  99.0703 346.6794 0254348 185.8901 231.1791 14.58216594629630
0 FENGYUN 1C DEB
1 29945U 99025JT  18341.93604340 +.00000184 +00000-0 +14276-3 0  9996
2 29945 099.0874 006.4901 0030486 311.4219 113.3301 14.04641686610065
0 FENGYUN 1C DEB
1 29945U 99025JT  18342.51780432  .00000153  00000-0  12334-3 0  9997
2 29945  99.0873   7.0723 0030465 309.7918 175.1427 14.04641941610223
0 FENGYUN 1C DEB
1 29946U 99025JU  18341.72480672 -.00000000 +00000-0 +25506-4 0  9991
2 29946 098.8659 010.3203 0082674 350.5259 123.7913 14.06200364610247
0 FENGYUN 1C DEB
1 29947U 99025JV  18341.90509439 +.00000093 +00000-0 +90495-4 0  9995
2 29947 099.1522 008.3607 0041543 026.4882 095.1571 14.01837495608477
0 FENGYUN 1C DEB
1 29947U 99025JV  18342.69024876  .00000108  00000-0  99997-4 0  9992
2 29947  99.1521   9.1484 0041488  24.3163  97.5352 14.01837734608733
0 FENGYUN 1C DEB
1 29948U 99025JW  18341.53656463 +.00000275 +00000-0 +19133-3 0  9996
2 29948 098.8468 008.3862 0085207 222.6196 294.2367 14.05008172609886
0 FENGYUN 1C DEB
1 29948U 99025JW  18342.08763878  .00000252  00000-0  17766-3 0  9991
2 29948  98.8468   8.9236 0085221 221.0683 201.5958 14.05008458610108
0 FENGYUN 1C DEB
1 29950U 99025JY  18342.08376208  .00000109  00000-0  88141-4 0  9998
2 29950  99.0536   4.6743 0032663 255.5411 176.0307 14.09313767612167
0 FENGYUN 1C DEB
1 29950U 99025JY  18341.95100993 +.00000109 +00000-0 +88271-4 0  9993
2 29950 099.0536 004.5410 0032662 255.9238 222.4979 14.09313731611999
0 FENGYUN 1C DEB
1 29953U 99025KB  18341.83226493 +.00000070 +00000-0 +88997-4 0  9999
2 29953 099.0810 028.2266 0112972 031.7210 020.6178 13.88757677602864
0 FENGYUN 1C DEB
1 29953U 99025KB  18342.71001351  .00000077  00000-0  94615-4 0  9992
2 29953  99.0808  29.0817 0112930  29.3503  88.9433 13.88757967603150
0 FENGYUN 1C DEB
1 29954U 99025KC  18342.82242917  .00000355  00000-0  17434-3 0  9992
2 29954 100.1498 300.6371 0087768 184.1013 175.9450 14.23384456616967
0 FENGYUN 1C DEB
1 29954U 99025KC  18341.83831735 +.00000332 +00000-0 +16479-3 0  9997
2 29954 100.1496 299.5034 0087750 186.8472 173.1509 14.23383549616682
0 FENGYUN 1C DEB
1 29955U 99025KD  18341.66071983 +.00000361 +00000-0 +18413-3 0  9992
2 29955 099.2810 226.8057 0009992 021.5582 031.8418 14.22422519615259
0 FENGYUN 1C DEB
1 29955U 99025KD  18342.23612340  .00000348  00000-0  17830-3 0  9991
2 29955  99.2810 227.4114 0009997  20.1543  98.0920 14.22422899615419
0 FENGYUN 1C DEB
1 29956U 99025KE  18341.95898296 -.00000085 +00000-0 -23828-4 0  9991
2 29956 099.1031 004.3462 0053369 334.6639 086.4954 14.05624384610566
0 FENGYUN 1C DEB
1 29957U 99025KF  18341.88872382 +.00001087 +00000-0 +60383-3 0  9999
2 29957 098.9655 041.1342 0063955 316.3091 097.6841 14.12288949611036
0 FENGYUN 1C DEB
1 29958U 99025KG  18341.93902804 +.00000093 +00000-0 +73982-4 0  9995
2 29958 098.9128 009.8325 0058621 047.9684 312.6455 14.11888925612821
0 FENGYUN 1C DEB
1 29958U 99025KG  18342.08076039  .00000089  00000-0  71972-4 0  9996
2 29958  98.9128   9.9734 0058616  47.5708 313.0400 14.11888947612989
0 FENGYUN 1C DEB
1 29959U 99025KH  18342.04288267 -.00000175  00000-0 -80049-4 0  9994
2 29959  99.1149   5.6010 0041813 272.6853 140.6117 14.04651006609812
0 FENGYUN 1C DEB
1 29959U 99025KH  18341.97522962 -.00000175 +00000-0 -80117-4 0  9994
2 29959 099.1149 005.5330 0041812 272.8778 158.5027 14.04651017609655
0 FENGYUN 1C DEB
1 29960U 99025KJ  18341.09156153 +.00000127 +00000-0 +87765-4 0  9995
2 29960 098.7201 023.0824 0096914 052.7267 000.3603 14.12449029612504
0 FENGYUN 1C DEB
1 29960U 99025KJ  18342.07881403  .00000136  00000-0  92549-4 0  9993
2 29960  98.7199  24.0432 0096877  49.9348 340.3424 14.12449440612787
0 FENGYUN 1C DEB
1 29961U 99025KK  18342.37345343  .00000031  00000-0  32225-4 0  9994
2 29961  98.9839 115.7211 0077498 108.4677 252.4944 14.24282410618532
0 FENGYUN 1C DEB
1 29961U 99025KK  18341.95195094 +.00000030 +00000-0 +31796-4 0  9994
2 29961 098.9839 115.2903 0077502 109.6652 251.2909 14.24282346618285
0 FENGYUN 1C DEB
1 29962U 99025KL  18341.94754632 +.00000290 +00000-0 +19382-3 0  9997
2 29962 098.9799 008.7909 0112060 204.3521 227.0261 14.05647905609962
0 FENGYUN 1C DEB
1 29962U 99025KL  18342.53406639  .00000262  00000-0  17785-3 0  9998
2 29962  98.9799   9.3721 0112077 202.7086 315.0205 14.05648254610222
0 FENGYUN 1C DEB
1 29963U 99025KM  18341.85820821 +.00000275 +00000-0 +14088-3 0  9993
2 29963 098.9834 108.5721 0054970 099.3187 051.6980 14.22820379616637
0 FENGYUN 1C DEB
1 29963U 99025KM  18342.90725314  .00000280  00000-0  14282-3 0  9993
2 29963  98.9835 109.6419 0054949  96.3460  25.0298 14.22821056616967
0 FENGYUN 1C DEB
1 29964U 99025KN  18341.84641680 +.00000389 +00000-0 +28618-3 0  9997
2 29964 098.3734 358.3075 0144259 250.2570 108.2986 13.96084654605183
0 FENGYUN 1C DEB
1 29964U 99025KN  18342.49143886  .00000342  00000-0  25502-3 0  9992
2 29964  98.3734 358.8945 0144285 248.4481 110.1254 13.96085167605352
0 FENGYUN 1C DEB
1 29965U 99025KP  18342.57375682 -.00000157  00000-0 -77115-4 0  9997
2 29965  99.0574   8.9178 0146432 252.9269 262.5679 13.94554979605841
0 FENGYUN 1C DEB
1 29965U 99025KP  18341.63200432 -.00000153 +00000-0 -73796-4 0  9990
2 29965 099.0575 007.9936 0146410 255.5191 214.5775 13.94555098605568
0 FENGYUN 1C DEB
1 29966U 99025KQ  18341.91702410 +.00000140 +00000-0 +87004-4 0  9996
2 29966 099.4946 322.5432 0042524 021.8774 338.4204 14.21028337616246
0 FENGYUN 1C DEB
1 29966U 99025KQ  18342.55071425  .00000141  00000-0  87372-4 0  9991
2 29966  99.4947 323.2238 0042502  20.1141 340.1697 14.21028582616467
0 FENGYUN 1C DEB
1 29967U 99025KR  18342.55113503  .00000522  00000-0  30948-3 0  9995
2 29967  99.0499  17.8587 0087415 348.2441 169.9088 14.10156525610550
0 FENGYUN 1C DEB
1 29968U 99025KS  18342.56255090 -.00000054  00000-0 -59400-5 0  9993
2 29968  98.8580   9.5285 0091603 350.7845 161.5370 14.05713855610632
0 FENGYUN 1C DEB
1 29968U 99025KS  18341.97499374 -.00000073 +00000-0 -17254-4 0  9993
2 29968 098.8581 008.9541 0091636 352.4389 068.1552 14.05713843610461
0 FENGYUN 1C DEB
1 29969U 99025KT  18341.83891931 +.00000654 +00000-0 +34515-3 0  9995
2 29969 098.9406 024.0882 0051890 214.7956 200.1022 14.16775788612723
0 FENGYUN 1C DEB
1 29970U 99025KU  18341.90867042 +.00000184 +00000-0 +75002-4 0  9996
2 29970 098.9404 144.6538 0101714 196.9028 292.8601 14.36618296622894
0 FENGYUN 1C DEB
1 29971U 99025KV  18341.97436753 +.00000350 +00000-0 +21919-3 0  9997
2 29971 098.9994 015.3775 0025967 235.0395 192.2398 14.11037171611583
0 FENGYUN 1C DEB
1 29972U 99025KW  18342.56836778  .00000428  00000-0  13585-3 0  9991
2 29972  98.9439 184.8873 0095387 141.5689 279.1909 14.42887223624200
0 FENGYUN 1C DEB
1 29973U 99025KX  18341.96533269 +.00000371 +00000-0 +26867-3 0  9998
2 29973 098.9623 008.9393 0066885 083.8971 343.0277 14.01473699607979
0 FENGYUN 1C DEB
1 29974U 99025KY  18341.14873347 +.00000415 +00000-0 +28176-3 0  9997
2 29974 099.0403 047.6501 0050955 060.8338 351.9309 14.05052712608677
0 FENGYUN 1C DEB
1 29974U 99025KY  18342.79890719  .00000523  00000-0  34802-3 0  9994
2 29974  99.0400  49.2941 0050825  56.2504  58.8154 14.05054409608991
0 FENGYUN 1C DEB
1 29975U 99025KZ  18342.87057782 -.00000102  00000-0 -39052-4 0  9997
2 29975  99.2579 297.0339 0115528 136.9830 278.4293 13.96919407606848
0 FENGYUN 1C DEB
1 29975U 99025KZ  18341.86766199 -.00000164 +00000-0 -80648-4 0  9999
2 29975 099.2577 296.0242 0115486 139.7147 274.8619 13.96919631606608
0 FENGYUN 1C DEB
1 29976U 99025LA  18341.65691993 -.00000133 +00000-0 -48907-4 0  9994
2 29976 099.0461 009.7431 0276444 095.8897 021.8829 13.95515165605834
0 FENGYUN 1C DEB
1 29976U 99025LA  18342.66191491 -.00000044  00000-0 -13992-5 0  9992
2 29976  99.0459  10.7306 0276456  93.1405  30.8218 13.95515144606035
0 FENGYUN 1C DEB
1 29977U 99025LB  18342.56292531  .00000103  00000-0  94920-4 0  9992
2 29977  98.4024   9.8395 0136845 249.6070 265.5746 13.96923193605521
0 FENGYUN 1C DEB
1 29977U 99025LB  18341.75673809 +.00000162 +00000-0 +13392-3 0  9991
2 29977 098.4026 009.1023 0136767 251.8620 171.3208 13.96922963605276
0 FENGYUN 1C DEB
1 29978U 99025LC  18341.91463552 +.00000113 +00000-0 +11518-3 0  9996
2 29978 099.3685 350.9376 0076646 183.7326 243.8139 13.95102880605894
0 FENGYUN 1C DEB
1 29980U 99025LE  18341.70774104 -.00000003 +00000-0 +24035-4 0  9992
2 29980 098.7716 236.6564 0088063 270.2226 148.4100 14.04939272610079
0 FENGYUN 1C DEB
1 29980U 99025LE  18342.22500269 -.00000027  00000-0  96749-5 0  9997
2 29980  98.7716 237.1566 0088043 268.7623 244.6167 14.04939328610241
0 FENGYUN 1C DEB
1 29981U 99025LF  18342.51447826  .00017962  00000-0  42446-3 0  9997
2 29981  98.8819 173.0550 0049781 208.6245 151.2262 15.40615430644801
0 FENGYUN 1C DEB
1 29982U 99025LG  18342.48765023  .00000294  00000-0  72994-4 0  9998
2 29982  99.4142 161.5298 0148416  52.2694   0.9615 14.54482681629916
0 FENGYUN 1C DEB
1 29982U 99025LG  18341.95406458 +.00000283 +00000-0 +70747-4 0  9995
2 29982 099.4142 160.9295 0148434 053.8552 087.0392 14.54482221629701
0 FENGYUN 1C DEB
1 29983U 99025LH  18341.94688491 +.00001361 +00000-0 +29884-3 0  9997
2 29983 099.1887 355.0421 0076363 159.4416 262.7108 14.57719662626390
0 FENGYUN 1C DEB
1 29983U 99025LH  18342.36908551  .00001419  00000-0  31105-3 0  9999
2 29983  99.1887 355.5080 0076372 158.1760 318.3250 14.57721299626568
